NORAD_CAT_ID,OBJECT_NAME,OBJECT_TYPE,EPOCH,MEAN_MOTION,ECCENTRICITY,INCLINATION,RA_OF_ASC_NODE,ARG_OF_PERICENTER,MEAN_ANOMALY,BSTAR,MEAN_MOTION_DOT,MEAN_MOTION_DDOT,TLE_LINE0,TLE_LINE1,TLE_LINE2,SEMIMAJOR_AXIS,PERIOD,APOGEE,PERIGEE,DECAYED
52356.0,STARLINK-3801,PAYLOAD,2022-12-19 09:12:53,15.08838336,0.000217,53.2194,79.7742,35.3889,324.7246,2.1988e-05,6.2e-07,0.0,0 STARLINK-3801,1 52356U 22045AB  22353.38395604  .00000062  00000-0  21988-4 0  9997,2 52356  53.2194  79.7742 0002170  35.3889 324.7246 15.08838336 38205,6917.885,95.438,541.252,538.249,0.0
52356.0,STARLINK-3801,PAYLOAD,2022-12-19 17:09:48,15.08848403,0.0002103,53.2182,78.2863,39.0692,321.0452,0.00010643,1.406e-05,0.0,0 STARLINK-3801,1 52356U 22045AB  22353.71514737  .00001406  00000-0  10643-3 0  9992,2 52356  53.2182  78.2863 0002103  39.0692 321.0452 15.08848403 38259,6917.855,95.437,541.175,538.265,0.0
52356.0,STARLINK-3801,PAYLOAD,2022-12-20 12:14:26,15.08850728,0.0002215,53.2176,74.7178,38.3408,321.7742,0.00020502,2.977e-05,0.0,0 STARLINK-3801,1 52356U 22045AB  22354.51002626  .00002977  00000-0  20502-3 0  9999,2 52356  53.2176  74.7178 0002215  38.3408 321.7742 15.08850728 38378,6917.848000000001,95.437,541.245,538.18,0.0
52356.0,STARLINK-3801,PAYLOAD,2022-12-20 15:25:12,15.08842128,0.0002192,53.2179,74.1228,36.6526,323.4615,0.00011088,1.477e-05,0.0,0 STARLINK-3801,1 52356U 22045AB  22354.64250983  .00001477  00000-0  11088-3 0  9997,2 52356  53.2179  74.1228 0002192  36.6526 323.4615 15.08842128 38392,6917.874,95.437,541.255,538.222,0.0
52356.0,STARLINK-3801,PAYLOAD,2022-12-21 12:05:14,15.08826233,0.0002306,53.2203,70.2579,37.9213,322.1942,-0.00017593,-3.086e-05,0.0,0 STARLINK-3801,1 52356U 22045AB  22355.50364162 -.00003086  00000-0 -17593-3 0  9995,2 52356  53.2203  70.2579 0002306  37.9213 322.1942 15.08826233 38523,6917.922,95.438,541.383,538.192,0.0
52356.0,STARLINK-3801,PAYLOAD,2022-12-22 11:56:01,15.08840301,0.0002194,53.2184,65.7985,32.607,327.5058,5.9394e-05,6.57e-06,0.0,0 STARLINK-3801,1 52356U 22045AB  22356.49724054  .00000657  00000-0  59394-4 0  9999,2 52356  53.2184  65.7985 0002194  32.6070 327.5058 15.08840301 38674,6917.879,95.438,541.262,538.227,0.0
52356.0,STARLINK-3801,PAYLOAD,2022-12-22 16:42:11,15.08836006,0.0002327,53.2182,64.907,32.5797,327.5339,7.6955e-05,9.37e-06,0.0,0 STARLINK-3801,1 52356U 22045AB  22356.69596469  .00000937  00000-0  76955-4 0  9991,2 52356  53.2182  64.9070 0002327  32.5797 327.5339 15.08836006 38704,6917.893,95.438,541.367,538.148,0.0
52356.0,STARLINK-3801,PAYLOAD,2022-12-23 03:49:53,15.08831141,0.0002323,53.2185,62.8254,33.1915,326.9223,0.0001611,2.276e-05,0.0,0 STARLINK-3801,1 52356U 22045AB  22357.15965043  .00002276  00000-0  16110-3 0  9995,2 52356  53.2185  62.8254 0002323  33.1915 326.9223 15.08831141 38770,6917.906999999997,95.438,541.379,538.165,0.0
52356.0,STARLINK-3801,PAYLOAD,2022-12-23 11:46:49,15.08831744,0.0002399,53.2186,61.3388,34.4036,325.7111,0.00029126,4.349e-05,0.0,0 STARLINK-3801,1 52356U 22045AB  22357.49085212  .00004349  00000-0  29126-3 0  9997,2 52356  53.2186  61.3388 0002399  34.4036 325.7111 15.08831744 38822,6917.906,95.438,541.43,538.111,0.0
52356.0,STARLINK-3801,PAYLOAD,2022-12-23 14:57:36,15.08829841,0.0002308,53.2177,60.7441,32.2526,327.8607,0.00021575,3.146e-05,0.0,0 STARLINK-3801,1 52356U 22045AB  22357.62333396  .00003146  00000-0  21575-3 0  9995,2 52356  53.2177  60.7441 0002308  32.2526 327.8607 15.08829841 38845,6917.911,95.438,541.373,538.18,0.0
52356.0,STARLINK-3801,PAYLOAD,2022-12-24 05:16:03,15.08845085,0.0002328,53.2178,58.06800000000001,34.0219,326.0922,0.00021375,3.116e-05,0.0,0 STARLINK-3801,1 52356U 22045AB  22358.21948815  .00003116  00000-0  21375-3 0  9994,2 52356  53.2178  58.0680 0002328  34.0219 326.0922 15.08845085 38931,6917.865,95.437,541.34,538.119,0.0
52356.0,STARLINK-3801,PAYLOAD,2022-12-24 13:12:59,15.08852884,0.0002383,53.2178,56.5813,32.1391,327.9746,1.4350999999999996e-06,-2.66e-06,0.0,0 STARLINK-3801,1 52356U 22045AB  22358.55068311 -.00000266  00000-0  14351-5 0  9997,2 52356  53.2178  56.5813 0002383  32.1391 327.9746 15.08852884 38987,6917.840999999999,95.437,541.355,538.057,0.0
52356.0,STARLINK-3801,PAYLOAD,2022-12-25 09:53:00,15.08844155,0.0002446,53.2172,52.7148,34.6763,325.4388,6.9436e-05,8.17e-06,0.0,0 STARLINK-3801,1 52356U 22045AB  22359.41180583  .00000817  00000-0  69436-4 0  9993,2 52356  53.2172  52.7148 0002446  34.6763 325.4388 15.08844155 39113,6917.868,95.437,541.425,538.0409999999998,0.0
52356.0,STARLINK-3801,PAYLOAD,2022-12-25 21:00:42,15.0883416,0.0002485,53.2187,50.6353,29.6075,330.5058,3.8647e-05,3.27e-06,0.0,0 STARLINK-3801,1 52356U 22045AB  22359.87549279  .00000327  00000-0  38647-4 0  9990,2 52356  53.2187  50.6353 0002485  29.6075 330.5058 15.08834160 39180,6917.898,95.438,541.482,538.044,0.0
52356.0,STARLINK-3801,PAYLOAD,2022-12-26 12:54:34,15.08836448,0.0002485,53.2184,47.6607,31.3441,328.7699,5.5267e-06,-2e-06,0.0,0 STARLINK-3801,1 52356U 22045AB  22360.53789435 -.00000200  00000-0  55267-5 0  9994,2 52356  53.2184  47.6607 0002485  31.3441 328.7699 15.08836448 39284,6917.891,95.438,541.475,538.0369999999998,0.0
52356.0,STARLINK-3801,PAYLOAD,2022-12-26 20:51:29,15.08840704,0.0002243,53.2194,46.1724,31.0922,329.0203,0.0001306,1.791e-05,0.0,0 STARLINK-3801,1 52356U 22045AB  22360.86909300  .00001791  00000-0  13060-3 0  9993,2 52356  53.2194  46.1724 0002243  31.0922 329.0203 15.08840704 39333,6917.878000000002,95.438,541.295,538.192,0.0
52356.0,STARLINK-3801,PAYLOAD,2022-12-27 01:37:38,15.08855271,0.0002421,53.2185,45.2812,27.2163,332.8956,0.00013814,1.912e-05,0.0,0 STARLINK-3801,1 52356U 22045AB  22361.06780645  .00001912  00000-0  13814-3 0  9997,2 52356  53.2185  45.2812 0002421  27.2163 332.8956 15.08855271 39368,6917.834,95.437,541.374,538.024,0.0
52356.0,STARLINK-3801,PAYLOAD,2022-12-27 09:34:33,15.08861179,0.000241,53.2181,43.7937,29.8933,330.2197,0.00046542,7.131e-05,0.0,0 STARLINK-3801,1 52356U 22045AB  22361.39900435  .00007131  00000-0  46542-3 0  9997,2 52356  53.2181  43.7937 0002410  29.8933 330.2197 15.08861179 39415,6917.816,95.436,541.3480000000002,538.013,0.0
52356.0,STARLINK-3801,PAYLOAD,2022-12-27 12:45:20,15.08865226,0.0002427,53.218,43.1989,30.9992,329.1143,0.00077013,0.00011998,0.0,0 STARLINK-3801,1 52356U 22045AB  22361.53148491  .00011998  00000-0  77013-3 0  9992,2 52356  53.2180  43.1989 0002427  30.9992 329.1143 15.08865226 39438,6917.803000000001,95.436,541.347,537.989,0.0
52356.0,STARLINK-3801,PAYLOAD,2022-12-28 12:36:06,15.08854343,0.0002743,53.2215,38.7407,11.6883,348.4172,-4.0604e-05,-9.35e-06,0.0,0 STARLINK-3801,1 52356U 22045AB  22362.52507523 -.00000935  00000-0 -40604-4 0  9995,2 52356  53.2215  38.7407 0002743  11.6883 348.4172 15.08854343 39588,6917.837,95.437,541.599,537.804,0.0
52356.0,STARLINK-3801,PAYLOAD,2022-12-29 09:16:08,15.08825472,0.0002563,53.218,34.8724,31.6512,328.4634,-0.00032111,-5.393e-05,0.0,0 STARLINK-3801,1 52356U 22045AB  22363.38620929 -.00005393  00000-0 -32111-3 0  9992,2 52356  53.2180  34.8724 0002563  31.6512 328.4634 15.08825472 39716,6917.925,95.438,541.563,538.0169999999998,0.0
52356.0,STARLINK-3801,PAYLOAD,2022-12-30 02:45:23,15.0883818,0.0002218999999999,53.219,31.6018,33.8455,326.2679,3.3458000000000004e-05,2.44e-06,0.0,0 STARLINK-3801,1 52356U 22045AB  22364.11485168  .00000244  00000-0  33458-4 0  9992,2 52356  53.2190  31.6018 0002219  33.8455 326.2679 15.08838180 39823,6917.886,95.438,541.286,538.216,0.0
52356.0,STARLINK-3801,PAYLOAD,2022-12-30 09:06:55,15.08847738,0.0002276999999999,53.2186,30.4127,35.1421,324.9721,0.00012713,1.736e-05,0.0,0 STARLINK-3801,1 52356U 22045AB  22364.37980503  .00001736  00000-0  12713-3 0  9990,2 52356  53.2186  30.4127 0002277  35.1421 324.9721 15.08847738 39864,6917.857,95.437,541.297,538.1469999999998,0.0
52356.0,STARLINK-3801,PAYLOAD,2022-12-30 12:17:43,15.08813139,0.0002648,53.2173,29.8178,36.5726,323.5446,0.0012144,0.00019078,0.0,0 STARLINK-3801,1 52356U 22045AB  22364.51230921  .00019078  00000-0  12144-2 0  9993,2 52356  53.2173  29.8178 0002648  36.5726 323.5446 15.08813139 39882,6917.962,95.439,541.659,537.996,0.0
52356.0,STARLINK-3801,PAYLOAD,2022-12-30 18:39:13,15.0885771,0.0002563999999999,53.218,28.6288,31.1169,328.9975,0.00053982,8.318e-05,0.0,0 STARLINK-3801,1 52356U 22045AB  22364.77724461  .00008318  00000-0  53982-3 0  9999,2 52356  53.2180  28.6288 0002564  31.1169 328.9975 15.08857710 39922,6917.826,95.436,541.465,537.918,0.0
52356.0,STARLINK-3801,PAYLOAD,2022-12-31 10:33:05,15.08856962,0.0002542,53.2186,25.6554,32.8163,327.2986,0.00031008,4.652e-05,0.0,0 STARLINK-3801,1 52356U 22045AB  22365.43964197  .00004652  00000-0  31008-3 0  9997,2 52356  53.2186  25.6554 0002542  32.8163 327.2986 15.08856962 40024,6917.829000000002,95.436,541.452,537.935,0.0
52356.0,STARLINK-3801,PAYLOAD,2022-12-31 18:30:00,15.08855157,0.0002586,53.2185,24.1686,31.9252,328.1897,-1.0776e-05,-4.6e-06,0.0,0 STARLINK-3801,1 52356U 22045AB  22365.77083814 -.00000460  00000-0 -10776-4 0  9997,2 52356  53.2185  24.1686 0002586  31.9252 328.1897 15.08855157 40071,6917.834,95.437,541.488,537.91,0.0
52356.0,STARLINK-3801,PAYLOAD,2023-01-01 02:26:56,15.08844126,0.0002813,53.2195,22.6822,35.9739,324.1442,-0.00024529,-4.191e-05,0.0,0 STARLINK-3801,1 52356U 22045AB  23001.10203946 -.00004191  00000-0 -24529-3 0  9997,2 52356  53.2195  22.6822 0002813  35.9739 324.1442 15.08844126 40126,6917.868,95.437,541.679,537.7869999999998,0.0
52356.0,STARLINK-3801,PAYLOAD,2023-01-01 10:23:52,15.08827431,0.000267,53.2177,21.1946,31.6251,328.4901,-0.00038394,-6.392e-05,0.0,0 STARLINK-3801,1 52356U 22045AB  23001.43324827 -.00006392  00000-0 -38394-3 0  9995,2 52356  53.2177  21.1946 0002670  31.6251 328.4901 15.08827431 40172,6917.919,95.438,541.631,537.937,0.0
